OBJECT_NAME,OBJECT_ID,EPOCH,MEAN_MOTION,ECCENTRICITY,INCLINATION,RA_OF_ASC_NODE,ARG_OF_PERICENTER,MEAN_ANOMALY,EPHEMERIS_TYPE,CLASSIFICATION_TYPE,NORAD_CAT_ID,ELEMENT_SET_NO,REV_AT_EPOCH,BSTAR,MEAN_MOTION_DOT,MEAN_MOTION_DDOT
STARLINK-35542,2025-235G,2026-07-14T19:44:07.247040,15.30192559,.00009774,53.1608,14.9237,81.5048,278.6064,0,U,66064,999,4238,.36168678E-3,.10366E-3,0
STARLINK-35375,2025-235H,2026-07-14T18:34:21.362304,15.30200939,.00014253,53.1616,15.3357,121.7735,238.3404,0,U,66065,999,4237,.35727012E-3,.10237E-3,0
STARLINK-35179,2025-235J,2026-07-14T21:24:12.373632,15.30185518,.00012467,53.1614,14.6500,63.4411,296.6717,0,U,66066,999,4239,-.52738595E-4,-.192E-4,0
STARLINK-35401,2025-235K,2026-07-14T17:09:48.633408,15.34406119,.00012825,53.1590,14.2584,121.3205,238.7923,0,U,66067,999,4235,.44473658E-3,.14682E-3,0
STARLINK-35422,2025-235L,2026-07-14T18:58:45.539040,15.34400603,.00011119,53.1591,14.0160,91.8617,268.2513,0,U,66068,999,4236,.16530368E-3,.5213E-4,0
STARLINK-35279,2025-235M,2026-07-14T19:03:03.906144,15.30201984,.00010084,53.1596,14.7406,123.6877,236.4220,0,U,66069,999,4238,.33031903E-3,.9437E-4,0
STARLINK-35295,2025-235N,2026-07-14T18:28:16.622976,15.30198422,.00015882,53.1620,15.2988,106.1164,254.0012,0,U,66070,999,4237,.19176387E-3,.5324E-4,0
STARLINK-35323,2025-235P,2026-07-14T18:44:49.485984,15.30209426,.00010623,53.1590,14.6585,118.8571,241.2537,0,U,66071,999,4238,.3471113E-3,.9938E-4,0
STARLINK-35299,2025-235Q,2026-07-14T17:31:01.304544,15.34393885,.0000969,53.1590,14.3546,96.3572,263.7541,0,U,66072,999,4238,.44456074E-3,.14671E-3,0
STARLINK-35274,2025-235R,2026-07-14T18:29:48.170688,15.30187279,.00009946,53.1604,15.3101,108.1365,251.9744,0,U,66073,999,4237,.54317544E-3,.15756E-3,0
STARLINK-35321,2025-235S,2026-07-14T18:20:40.990848,15.30197658,.0001286,53.1616,15.2709,87.9806,272.1342,0,U,66074,999,4237,.42609355E-3,.1228E-3,0
STARLINK-35131,2025-235T,2026-07-14T19:01:47.172576,15.34395093,.00011744,53.1606,14.0307,104.0184,256.0949,0,U,66075,999,4239,.45718055E-3,.15099E-3,0
STARLINK-34801,2025-235U,2026-07-14T19:45:36.767808,15.30205199,.00012461,53.1616,14.9266,89.9797,270.1347,0,U,66076,999,4238,.21687868E-3,.607E-4,0
STARLINK-35129,2025-235V,2026-07-14T19:22:59.599200,15.34403731,.00012955,53.1605,14.1223,130.4618,229.6497,0,U,66077,999,4239,.41301336E-3,.13605E-3,0
STARLINK-35116,2025-235W,2026-07-14T19:26:01.481568,15.34396836,.00012026,53.1606,14.1322,111.7292,248.3839,0,U,66078,999,4239,.36029646E-3,.11815E-3,0
STARLINK-35402,2025-235X,2026-07-14T18:58:30.491616,15.30203575,.00008768,53.1589,14.7209,73.8669,286.2428,0,U,66079,999,4238,.31302678E-3,.8924E-4,0
STARLINK-35325,2025-235Y,2026-07-14T18:40:35.891616,15.34423094,.00010134,53.1592,13.9395,74.6257,285.4858,0,U,66080,999,4239,.67644146E-3,.22564E-3,0
STARLINK-35403,2025-235Z,2026-07-14T18:20:07.649088,15.31708786,.00011269,53.1603,13.8412,97.0015,263.1114,0,U,66081,999,4239,.42146619E-3,.12739E-3,0
STARLINK-35011,2025-235AA,2026-07-14T18:40:17.178240,15.31715067,.00012348,53.1598,13.9313,105.3489,254.7649,0,U,66082,999,4239,.25657238E-3,.7608E-4,0
STARLINK-35291,2025-235AB,2026-07-14T18:32:49.909632,15.30203579,.00010578,53.1604,15.3183,139.7925,220.3154,0,U,66083,999,4234,.36184981E-3,.10374E-3,0
STARLINK-35379,2025-235AC,2026-07-14T21:22:42.354336,15.30203085,.00011755,53.1610,14.6307,89.4587,270.6548,0,U,66084,999,4239,.47602778E-3,.13767E-3,0
STARLINK-35370,2025-235AD,2026-07-14T16:49:39.728064,15.30203760,.00009752,53.1614,15.5812,100.7003,259.4108,0,U,66085,999,4233,.42963596E-3,.12388E-3,0
STARLINK-35596,2025-236A,2026-07-14T11:43:24.849120,15.30205239,.00009297,53.1566,235.2220,95.2924,264.8183,0,U,66086,999,4235,.21680051E-3,.6068E-4,0
STARLINK-35563,2025-236B,2026-07-14T11:34:49.550880,15.34410639,.00008899,53.1577,233.7658,110.2035,249.9063,0,U,66087,999,4231,.25915935E-3,.8393E-4,0
STARLINK-35461,2025-236C,2026-07-14T08:59:27.811680,15.30196267,.00013799,53.1596,235.2196,94.4544,265.6614,0,U,66088,999,4228,.21717838E-3,.6078E-4,0
STARLINK-35571,2025-236D,2026-07-14T09:13:08.230656,15.30203185,.00010437,53.1573,235.2789,88.0151,272.0969,0,U,66089,999,4234,.18365422E-3,.5085E-4,0
STARLINK-35570,2025-236E,2026-07-14T10:24:24.484608,15.30199078,.00013152,53.1578,234.8769,78.0033,282.1115,0,U,66090,999,4235,.2760263E-3,.7824E-4,0
STARLINK-35532,2025-236F,2026-07-14T11:49:19.788960,15.30195867,.0001593,53.1587,234.5351,68.0050,292.1120,0,U,66091,999,4236,.82632342E-4,.2088E-4,0
STARLINK-35527,2025-236G,2026-07-14T09:03:29.122560,15.34389031,.00011778,53.1573,233.8260,89.6896,270.4242,0,U,66092,999,4236,.57197469E-3,.18991E-3,0
STARLINK-35500,2025-236H,2026-07-14T09:17:41.589888,15.30194127,.0001023,53.1575,235.2995,89.8084,270.3034,0,U,66093,999,4234,.15899114E-3,.4352E-4,0
