STARLINK-35542          
1 66064U 25235G   26195.82230610  .00010366  00000+0  36169-3 0  9997
2 66064  53.1608  14.9237 0000977  81.5048 278.6064 15.30192559 42382
STARLINK-35375          
1 66065U 25235H   26195.77385836  .00010237  00000+0  35727-3 0  9999
2 66065  53.1616  15.3357 0001425 121.7735 238.3404 15.30200939 42371
STARLINK-35179          
1 66066U 25235J   26195.89180988 -.00001920  00000+0 -52739-4 0  9998
2 66066  53.1614  14.6500 0001246  63.4411 296.6717 15.30185518 42397
STARLINK-35401          
1 66067U 25235K   26195.71514622  .00014682  00000+0  44474-3 0  9999
2 66067  53.1590  14.2584 0001282 121.3205 238.7923 15.34406119 42353
STARLINK-35422          
1 66068U 25235L   26195.79080485  .00005213  00000+0  16530-3 0  9995
2 66068  53.1591  14.0160 0001111  91.8617 268.2513 15.34400603 42368
STARLINK-35279          
1 66069U 25235M   26195.79379521  .00009437  00000+0  33032-3 0  9996
2 66069  53.1596  14.7406 0001008 123.6877 236.4220 15.30201984 42382
STARLINK-35295          
1 66070U 25235N   26195.76963684  .00005324  00000+0  19176-3 0  9998
2 66070  53.1620  15.2988 0001588 106.1164 254.0012 15.30198422 42377
STARLINK-35323          
1 66071U 25235P   26195.78112831  .00009938  00000+0  34711-3 0  9998
2 66071  53.1590  14.6585 0001062 118.8571 241.2537 15.30209426 42387
STARLINK-35299          
1 66072U 25235Q   26195.72987621  .00014671  00000+0  44456-3 0  9997
2 66072  53.1590  14.3546 0000969  96.3572 263.7541 15.34393885 42389
STARLINK-35274          
1 66073U 25235R   26195.77069642  .00015756  00000+0  54318-3 0  9990
2 66073  53.1604  15.3101 0000994 108.1365 251.9744 15.30187279 42371
STARLINK-35321          
1 66074U 25235S   26195.76436332  .00012280  00000+0  42609-3 0  9993
2 66074  53.1616  15.2709 0001286  87.9806 272.1342 15.30197658 42378
STARLINK-35131          
1 66075U 25235T   26195.79290709  .00015099  00000+0  45718-3 0  9998
2 66075  53.1606  14.0307 0001174 104.0184 256.0949 15.34395093 42398
STARLINK-34801          
1 66076U 25235U   26195.82334222  .00006070  00000+0  21688-3 0  9991
2 66076  53.1616  14.9266 0001246  89.9797 270.1347 15.30205199 42385
STARLINK-35129          
1 66077U 25235V   26195.80763425  .00013605  00000+0  41301-3 0  9997
2 66077  53.1605  14.1223 0001295 130.4618 229.6497 15.34403731 42399
STARLINK-35116          
1 66078U 25235W   26195.80973937  .00011815  00000+0  36030-3 0  9993
2 66078  53.1606  14.1322 0001202 111.7292 248.3839 15.34396836 42394
STARLINK-35402          
1 66079U 25235X   26195.79063069  .00008924  00000+0  31303-3 0  9993
2 66079  53.1589  14.7209 0000876  73.8669 286.2428 15.30203575 42384
STARLINK-35325          
1 66080U 25235Y   26195.77819319  .00022564  00000+0  67644-3 0  9993
2 66080  53.1592  13.9395 0001013  74.6257 285.4858 15.34423094 42396
STARLINK-35403          
1 66081U 25235Z   26195.76397742  .00012739  00000+0  42147-3 0  9998
2 66081  53.1603  13.8412 0001126  97.0015 263.1114 15.31708786 42394
STARLINK-35011          
1 66082U 25235AA  26195.77797660  .00007608  00000+0  25657-3 0  9999
2 66082  53.1598  13.9313 0001234 105.3489 254.7649 15.31715067 42396
STARLINK-35291          
1 66083U 25235AB  26195.77279988  .00010374  00000+0  36185-3 0  9990
2 66083  53.1604  15.3183 0001057 139.7925 220.3154 15.30203579 42349
STARLINK-35379          
1 66084U 25235AC  26195.89076799  .00013767  00000+0  47603-3 0  9995
2 66084  53.1610  14.6307 0001175  89.4587 270.6548 15.30203085 42395
STARLINK-35370          
1 66085U 25235AD  26195.70115426  .00012388  00000+0  42964-3 0  9990
2 66085  53.1614  15.5812 0000975 100.7003 259.4108 15.30203760 42339
STARLINK-35596          
1 66086U 25236A   26195.48848205  .00006068  00000+0  21680-3 0  9995
2 66086  53.1566 235.2220 0000929  95.2924 264.8183 15.30205239 42357
STARLINK-35563          
1 66087U 25236B   26195.48251795  .00008393  00000+0  25916-3 0  9997
2 66087  53.1577 233.7658 0000889 110.2035 249.9063 15.34410639 42317
STARLINK-35461          
1 66088U 25236C   26195.37462745  .00006078  00000+0  21718-3 0  9999
2 66088  53.1596 235.2196 0001379  94.4544 265.6614 15.30196267 42283
STARLINK-35571          
1 66089U 25236D   26195.38412304  .00005085  00000+0  18365-3 0  9998
2 66089  53.1573 235.2789 0001043  88.0151 272.0969 15.30203185 42348
STARLINK-35570          
1 66090U 25236E   26195.43361672  .00007824  00000+0  27603-3 0  9995
2 66090  53.1578 234.8769 0001315  78.0033 282.1115 15.30199078 42359
STARLINK-35532          
1 66091U 25236F   26195.49259015  .00002088  00000+0  82632-4 0  9990
2 66091  53.1587 234.5351 0001593  68.0050 292.1120 15.30195867 42360
STARLINK-35527          
1 66092U 25236G   26195.37742040  .00018991  00000+0  57197-3 0  9990
2 66092  53.1573 233.8260 0001177  89.6896 270.4242 15.34389031 42368
STARLINK-35500          
1 66093U 25236H   26195.38728692  .00004352  00000+0  15899-3 0  9998
2 66093  53.1575 235.2995 0001023  89.8084 270.3034 15.30194127 42345
